$$SOE
2460154.500000000, A.D. 2023-Jul-29 00:00:00.0000, -6.551342781490102E+08, -1.072215975290743E+08, 4.734208258340158E+07,
2460161.500000000, A.D. 2023-Aug-05 00:00:00.0000, -6.546411125878180E+08, -1.151983286628475E+08, 4.695805940961671E+07,
2460168.500000000, A.D. 2023-Aug-12 00:00:00.0000, -6.540406040797013E+08, -1.231561800685092E+08, 4.656633324524298E+07,
2460175.500000000, A.D. 2023-Aug-19 00:00:00.0000, -6.533332415131761E+08, -1.310939214164644E+08, 4.616699613211551E+07,
2460182.500000000, A.D. 2023-Aug-26 00:00:00.0000, -6.525195214159408E+08, -1.390103337455641E+08, 4.576014024441379E+07,
2460189.500000000, A.D. 2023-Sep-02 00:00:00.0000, -6.515999478119000E+08, -1.469042093040559E+08, 4.534585788302661E+07,
2460196.500000000, A.D. 2023-Sep-09 00:00:00.0000, -6.505750320712399E+08, -1.547743515033337E+08, 4.492424145907280E+07,
2460203.500000000, A.D. 2023-Sep-16 00:00:00.0000, -6.494452925849494E+08, -1.626195750425791E+08, 4.449538344642650E+07,
2460210.500000000, A.D. 2023-Sep-23 00:00:00.0000, -6.482112538471708E+08, -1.704387059175830E+08, 4.405937628854223E+07,
2460217.500000000, A.D. 2023-Sep-30 00:00:00.0000, -6.468734452846525E+08, -1.782305801230945E+08, 4.361631238810407E+07,
2460224.500000000, A.D. 2023-Oct-07 00:00:00.0000, -6.454324021867880E+08, -1.859940415917680E+08, 4.316628435112441E+07,
2460231.500000000, A.D. 2023-Oct-14 00:00:00.0000, -6.438886676965282E+08, -1.937279426831843E+08, 4.270938511951059E+07,
2460238.500000000, A.D. 2023-Oct-21 00:00:00.0000, -6.422427926337706E+08, -2.014311456201701E+08, 4.224570782716034E+07,
2460245.500000000, A.D. 2023-Oct-28 00:00:00.0000, -6.404953345752251E+08, -2.091025226121017E+08, 4.177534569515502E+07,
2460252.500000000, A.D. 2023-Nov-04 00:00:00.0000, -6.386468574403597E+08, -2.167409554356865E+08, 4.129839201796019E+07,
2460259.500000000, A.D. 2023-Nov-11 00:00:00.0000, -6.366979314057468E+08, -2.243453350733719E+08, 4.081494017555904E+07,
2460266.500000000, A.D. 2023-Nov-18 00:00:00.0000, -6.346491329283639E+08, -2.319145614738761E+08, 4.032508364637950E+07,
2460273.500000000, A.D. 2023-Nov-25 00:00:00.0000, -6.325010448050725E+08, -2.394475434123671E+08, 3.982891601640629E+07,
2460280.500000000, A.D. 2023-Dec-02 00:00:00.0000, -6.302542562400825E+08, -2.469431984615458E+08, 3.932653098115765E+07,
2460287.500000000, A.D. 2023-Dec-09 00:00:00.0000, -6.279093628425550E+08, -2.544004531325916E+08, 3.881802232868414E+07,
2460294.500000000, A.D. 2023-Dec-16 00:00:00.0000, -6.254669662667696E+08, -2.618182431734208E+08, 3.830348387827956E+07,
2460301.500000000, A.D. 2023-Dec-23 00:00:00.0000, -6.229276731463239E+08, -2.691955133367581E+08, 3.778300939907248E+07,
2460308.500000000, A.D. 2023-Dec-30 00:00:00.0000, -6.202920946623454E+08, -2.765312155686740E+08, 3.725669271703976E+07,
2460315.500000000, A.D. 2024-Jan-06 00:00:00.0000, -6.175608485179641E+08, -2.838243079783722E+08, 3.672462797988585E+07,
2460322.500000000, A.D. 2024-Jan-13 00:00:00.0000, -6.147345601463941E+08, -2.910737563961968E+08, 3.618690964088438E+07,
2460329.500000000, A.D. 2024-Jan-20 00:00:00.0000, -6.118138619289293E+08, -2.982785354350369E+08, 3.564363230129252E+07,
2460336.500000000, A.D. 2024-Jan-27 00:00:00.0000, -6.087993924509753E+08, -3.054376284027444E+08, 3.509489065043749E+07,
2460343.500000000, A.D. 2024-Feb-03 00:00:00.0000, -6.056917962239895E+08, -3.125500270144203E+08, 3.454077946496509E+07,
2460350.500000000, A.D. 2024-Feb-10 00:00:00.0000, -6.024917235958885E+08, -3.196147311961309E+08, 3.398139361778408E+07,
2460357.500000000, A.D. 2024-Feb-17 00:00:00.0000, -5.991998307114432E+08, -3.266307489724931E+08, 3.341682808446561E+07,
2460364.500000000, A.D. 2024-Feb-24 00:00:00.0000, -5.958167794870367E+08, -3.335970964235108E+08, 3.284717794488415E+07,
2460371.500000000, A.D. 2024-Mar-02 00:00:00.0000, -5.923432375706567E+08, -3.405127977431958E+08, 3.227253837466043E+07,
2460378.500000000, A.D. 2024-Mar-09 00:00:00.0000, -5.887798781484258E+08, -3.473768854627498E+08, 3.169300460846406E+07,
2460385.500000000, A.D. 2024-Mar-16 00:00:00.0000, -5.851273792023554E+08, -3.541884006409132E+08, 3.110867185498397E+07,
2460392.500000000, A.D. 2024-Mar-23 00:00:00.0000, -5.813864223227321E+08, -3.609463919122613E+08, 3.051963526365122E+07,
2460399.500000000, A.D. 2024-Mar-30 00:00:00.0000, -5.775576933159627E+08, -3.676499134201431E+08, 2.992599014643614E+07,
2460406.500000000, A.D. 2024-Apr-06 00:00:00.0000, -5.736418843517061E+08, -3.742980250020496E+08, 2.932783215598832E+07,
2460413.500000000, A.D. 2024-Apr-13 00:00:00.0000, -5.696396940983592E+08, -3.808897937911083E+08, 2.872525716276410E+07,
2460420.500000000, A.D. 2024-Apr-20 00:00:00.0000, -5.655518267990024E+08, -3.874242945568044E+08, 2.811836113724364E+07,
2460427.500000000, A.D. 2024-Apr-27 00:00:00.0000, -5.613789918044320E+08, -3.939006093460786E+08, 2.750724013051736E+07,
2460434.500000000, A.D. 2024-May-04 00:00:00.0000, -5.571219034750123E+08, -4.003178271281361E+08, 2.689199028772877E+07,
2460441.500000000, A.D. 2024-May-11 00:00:00.0000, -5.527812812128303E+08, -4.066750435447482E+08, 2.627270786426948E+07,
2460448.500000000, A.D. 2024-May-18 00:00:00.0000, -5.483578495421309E+08, -4.129713607443443E+08, 2.564948923911351E+07,
2460455.500000000, A.D. 2024-May-25 00:00:00.0000, -5.438523382133301E+08, -4.192058873068279E+08, 2.502243092262830E+07,
2460462.500000000, A.D. 2024-Jun-01 00:00:00.0000, -5.392654822707897E+08, -4.253777383163171E+08, 2.439162954890513E+07,
2460469.500000000, A.D. 2024-Jun-08 00:00:00.0000, -5.345980218380286E+08, -4.314860356045231E+08, 2.375718182839367E+07,
2460476.500000000, A.D. 2024-Jun-15 00:00:00.0000, -5.298507012208726E+08, -4.375299076194108E+08, 2.311918446901143E+07,
2460483.500000000, A.D. 2024-Jun-22 00:00:00.0000, -5.250242683336671E+08, -4.435084877436924E+08, 2.247773425422919E+07,
2460490.500000000, A.D. 2024-Jun-29 00:00:00.0000, -5.201194765699727E+08, -4.494209128838095E+08, 2.183292832416481E+07,
2460497.500000000, A.D. 2024-Jul-06 00:00:00.0000, -5.151370864728282E+08, -4.552663248006952E+08, 2.118486421533945E+07,
2460504.500000000, A.D. 2024-Jul-13 00:00:00.0000, -5.100778652556257E+08, -4.610438713582825E+08, 2.053363971127743E+07,
2460511.500000000, A.D. 2024-Jul-20 00:00:00.0000, -5.049425861593018E+08, -4.667527065408498E+08, 1.987935278006017E+07,
2460518.500000000, A.D. 2024-Jul-27 00:00:00.0000, -4.997320283016587E+08, -4.723919901985000E+08, 1.922210158058944E+07,
2460525.500000000, A.D. 2024-Aug-03 00:00:00.0000, -4.944469767457452E+08, -4.779608878956956E+08, 1.856198448179480E+07,
2460532.500000000, A.D. 2024-Aug-10 00:00:00.0000, -4.890882226215227E+08, -4.834585708672687E+08, 1.789910007906032E+07,
2460539.500000000, A.D. 2024-Aug-17 00:00:00.0000, -4.836565632535899E+08, -4.888842160600033E+08, 1.723354720510820E+07,
2460546.500000000, A.D. 2024-Aug-24 00:00:00.0000, -4.781528022672404E+08, -4.942370062816820E+08, 1.656542493073669E+07,
2460553.500000000, A.D. 2024-Aug-31 00:00:00.0000, -4.725777495572819E+08, -4.995161305185878E+08, 1.589483253953063E+07,
2460560.500000000, A.D. 2024-Sep-07 00:00:00.0000, -4.669322207540481E+08, -5.047207842945217E+08, 1.522186945308903E+07,
2460567.500000000, A.D. 2024-Sep-14 00:00:00.0000, -4.612170361011440E+08, -5.098501690748947E+08, 1.454663518008757E+07,
2460574.500000000, A.D. 2024-Sep-21 00:00:00.0000, -4.554330207732970E+08, -5.149034903028510E+08, 1.386922950873971E+07,
2460581.500000000, A.D. 2024-Sep-28 00:00:00.0000, -4.495810071213545E+08, -5.198799572950596E+08, 1.318975272338003E+07,
2460588.500000000, A.D. 2024-Oct-05 00:00:00.0000, -4.436618351747224E+08, -5.247787849959375E+08, 1.250830550855824E+07,
2460595.500000000, A.D. 2024-Oct-12 00:00:00.0000, -4.376763517621701E+08, -5.295991946104314E+08, 1.182498881718484E+07,
2460602.500000000, A.D. 2024-Oct-19 00:00:00.0000, -4.316254100020924E+08, -5.343404133860737E+08, 1.113990384115610E+07,
2460609.500000000, A.D. 2024-Oct-26 00:00:00.0000, -4.255098691946115E+08, -5.390016743455018E+08, 1.045315202191272E+07,
2460616.500000000, A.D. 2024-Nov-02 00:00:00.0000, -4.193305948580920E+08, -5.435822161176177E+08, 9.764835065198243E+06,
2460623.500000000, A.D. 2024-Nov-09 00:00:00.0000, -4.130884588133522E+08, -5.480812828464662E+08, 9.075054952868730E+06,
2460630.500000000, A.D. 2024-Nov-16 00:00:00.0000, -4.067843392895402E+08, -5.524981241773368E+08, 8.383913949444830E+06,
2460637.500000000, A.D. 2024-Nov-23 00:00:00.0000, -4.004191210046163E+08, -5.568319953697268E+08, 7.691514595091939E+06,
2460644.500000000, A.D. 2024-Nov-30 00:00:00.0000, -3.939936950120088E+08, -5.610821575795691E+08, 6.997959662519813E+06,
2460651.500000000, A.D. 2024-Dec-07 00:00:00.0000, -3.875089578938910E+08, -5.652478778898641E+08, 6.303352073812276E+06,
2460658.500000000, A.D. 2024-Dec-14 00:00:00.0000, -3.809658109895427E+08, -5.693284278654442E+08, 5.607794940495402E+06,
2460665.500000000, A.D. 2024-Dec-21 00:00:00.0000, -3.743651619770333E+08, -5.733230818723723E+08, 4.911391838239729E+06,
2460672.500000000, A.D. 2024-Dec-28 00:00:00.0000, -3.677079268354855E+08, -5.772311181293863E+08, 4.214246892925829E+06,
2460679.500000000, A.D. 2025-Jan-04 00:00:00.0000, -3.609950295907459E+08, -5.810518201155233E+08, 3.516464634243846E+06,
2460686.500000000, A.D. 2025-Jan-11 00:00:00.0000, -3.542274016657985E+08, -5.847844766741006E+08, 2.818149919767410E+06,
2460693.500000000, A.D. 2025-Jan-18 00:00:00.0000, -3.474059817527032E+08, -5.884283817317003E+08, 2.119407938779950E+06,
2460700.500000000, A.D. 2025-Jan-25 00:00:00.0000, -3.405317159622962E+08, -5.919828341066254E+08, 1.420344234989434E+06,
2460707.500000000, A.D. 2025-Feb-01 00:00:00.0000, -3.336055580618724E+08, -5.954471374370048E+08, 7.210647285346985E+05,
2460714.500000000, A.D. 2025-Feb-08 00:00:00.0000, -3.266284697422357E+08, -5.988206002090378E+08, 2.167573376122117E+04,
$$EOE